IRIDIUM 106             
1 41917U 17003A   25336.48780684  .00000134  00000+0  40818-4 0  9999
2 41917  86.3989 170.7343 0002027 101.5077 258.6346 14.34218910465017
IRIDIUM 103             
1 41918U 17003B   25336.47511524 -.00000222  00000+0 -86246-4 0  9999
2 41918  86.3996 170.6403 0001471  83.1686 276.9677 14.34217084465038
IRIDIUM 109             
1 41919U 17003C   25336.48147269  .00000151  00000+0  46896-4 0  9998
2 41919  86.3990 170.6937 0001891  88.0375 272.1037 14.34213128465000
IRIDIUM 102             
1 41920U 17003D   25336.51951191  .00000314  00000+0  10511-3 0  9996
2 41920  86.3990 170.6058 0002056  86.4101 273.7330 14.34218185465099
IRIDIUM 105             
1 41921U 17003E   25336.49025549  .00000132  00000+0  40068-4 0  9992
2 41921  86.3970 139.1127 0001869  91.1524 268.9886 14.34218859466943
IRIDIUM 104             
1 41922U 17003F   25336.46243389  .00000151  00000+0  46901-4 0  9997
2 41922  86.3991 170.6691 0001867  78.3191 281.8214 14.34217727465073
IRIDIUM 114             
1 41923U 17003G   25336.46875843  .00000159  00000+0  49693-4 0  9993
2 41923  86.3991 170.6503 0001836  83.9893 276.1512 14.34216733465055
IRIDIUM 108             
1 41924U 17003H   25336.49706506  .00000028  00000+0  30453-5 0  9996
2 41924  86.3966 139.0007 0002195  91.2424 268.9023 14.34217894466918
